{
  "type": "FeatureCollection",
  "features": [
    {
      "type": "Feature",
      "properties": {
        "name": "Sonapur Active Slide Area",
        "state": "Meghalaya",
        "severity": "Critical",
        "risk_score": 0.94
      },
      "geometry": {
        "type": "Polygon",
        "coordinates": [
          [
            [
              92.2,
              25.1
            ],
            [
              92.26,
              25.1
            ],
            [
              92.26,
              25.16
            ],
            [
              92.2,
              25.16
            ],
            [
              92.2,
              25.1
            ]
          ]
        ]
      }
    },
    {
      "type": "Feature",
      "properties": {
        "name": "NH-10 Teesta River Basin Slide",
        "state": "Sikkim",
        "severity": "Critical",
        "risk_score": 0.92
      },
      "geometry": {
        "type": "Polygon",
        "coordinates": [
          [
            [
              88.48,
              27.1
            ],
            [
              88.55,
              27.1
            ],
            [
              88.55,
              27.18
            ],
            [
              88.48,
              27.18
            ],
            [
              88.48,
              27.1
            ]
          ]
        ]
      }
    },
    {
      "type": "Feature",
      "properties": {
        "name": "Jatinga Slope Instability Zone",
        "state": "Assam",
        "severity": "High",
        "risk_score": 0.85
      },
      "geometry": {
        "type": "Polygon",
        "coordinates": [
          [
            [
              93.0,
              25.1
            ],
            [
              93.08,
              25.1
            ],
            [
              93.08,
              25.18
            ],
            [
              93.0,
              25.18
            ],
            [
              93.0,
              25.1
            ]
          ]
        ]
      }
    },
    {
      "type": "Feature",
      "properties": {
        "name": "Kohima Ridge Creep Zone",
        "state": "Nagaland",
        "severity": "High",
        "risk_score": 0.83
      },
      "geometry": {
        "type": "Polygon",
        "coordinates": [
          [
            [
              94.08,
              25.64
            ],
            [
              94.15,
              25.64
            ],
            [
              94.15,
              25.7
            ],
            [
              94.08,
              25.7
            ],
            [
              94.08,
              25.64
            ]
          ]
        ]
      }
    },
    {
      "type": "Feature",
      "properties": {
        "name": "Hunli-Anini Corridor",
        "state": "Arunachal Pradesh",
        "severity": "Critical",
        "risk_score": 0.88
      },
      "geometry": {
        "type": "Polygon",
        "coordinates": [
          [
            [
              95.8,
              28.2
            ],
            [
              95.95,
              28.2
            ],
            [
              95.95,
              28.35
            ],
            [
              95.8,
              28.35
            ],
            [
              95.8,
              28.2
            ]
          ]
        ]
      }
    }
  ]
}